SPACEMOBILE-006         
1 67232U 25309A   26012.87352540  .00000316  00000+0  31129-4 0  9993
2 67232  53.0019 322.5640 0011587  24.0316 336.1216 15.17737602  3004
LVM3 R/B                
1 67233U 25309B   26012.98190189  .00005719  00000+0  27930-3 0  9991
2 67233  52.9275 321.5952 0011580  48.6427 311.5561 15.19654472  3027
2025-310A               
1 67234U 25310A   26012.95989773  .00000031  00000+0  11927-4 0  9998
2 67234  97.9662  22.4985 0001816 185.3611 174.7580 14.75705700  2734
SL-4 R/B                
1 67235U 25310B   26012.95097725  .00262572  23902-5  54015-3 0  9992
2 67235  97.9631  24.4939 0269642  10.2785 350.3829 15.58260390  2857
HULIANWANG DIGUI-128    
1 67236U 25311A   26012.97474991 -.00000029  00000+0  94380-4 0  9996
2 67236  50.0103 324.0210 0006551 337.3717  22.6892 13.90210137  2519
HULIANWANG DIGUI-129    
1 67237U 25311B   26012.90407508 -.00000037  00000+0  87998-4 0  9996
2 67237  50.0092 324.3109 0007797 338.6942  21.3631 13.90166408  2501
HULIANWANG DIGUI-130    
1 67238U 25311C   26012.98269002 -.00000025  00000+0  97718-4 0  9998
2 67238  50.0072 324.0549 0007760 316.3581  43.6703 13.90218029  2512
HULIANWANG DIGUI-131    
1 67239U 25311D   26012.98577682 -.00000024  00000+0  97978-4 0  9992
2 67239  50.0068 324.0697 0009365 323.7252  36.3011 13.90205067  2511
HULIANWANG DIGUI-132    
1 67240U 25311E   26012.97963275 -.00000034  00000+0  90505-4 0  9990
2 67240  50.0080 324.0408 0008453 330.4296  29.6124 13.90230952  2518
HULIANWANG DIGUI-133    
1 67241U 25311F   26012.97777683 -.00000030  00000+0  93115-4 0  9993
2 67241  50.0124 324.0418 0007571 334.6241  25.4285 13.90208903  2518
HULIANWANG DIGUI-134    
1 67242U 25311G   26012.97884784 -.00000019  00000+0  10260-3 0  9991
2 67242  50.0054 324.0303 0006694 323.5710  36.4732 13.90195004  2513
HULIANWANG DIGUI-135    
1 67243U 25311H   26012.98091617 -.00000026  00000+0  96540-4 0  9992
2 67243  50.0040 324.0377 0007910 326.0352  34.0039 13.90184011  2512
