CCSDS_OMM_VERS = 2.0
CREATION_DATE  = 
ORIGINATOR     = 

OBJECT_NAME    = SPACEMOBILE-006
OBJECT_ID      = 2025-309A
CENTER_NAME    = EARTH
REF_FRAME      = TEME
TIME_SYSTEM    = UTC
MEAN_ELEMENT_THEORY = SGP/SGP4

EPOCH          = 2026-01-12T20:57:52.594560
MEAN_MOTION    = 15.17737602
ECCENTRICITY   = .00115875
INCLINATION    = 53.0019
RA_OF_ASC_NODE = 322.5640
ARG_OF_PERICENTER = 24.0316
MEAN_ANOMALY   = 336.1216

EPHEMERIS_TYPE = 0
CLASSIFICATION_TYPE = U
NORAD_CAT_ID   = 67232
ELEMENT_SET_NO = 999
REV_AT_EPOCH   = 300
BSTAR          = .3112925E-4
MEAN_MOTION_DOT = .316E-5
MEAN_MOTION_DDOT = 0

CCSDS_OMM_VERS = 2.0
CREATION_DATE  = 
ORIGINATOR     = 

OBJECT_NAME    = LVM3 R/B
OBJECT_ID      = 2025-309B
CENTER_NAME    = EARTH
REF_FRAME      = TEME
TIME_SYSTEM    = UTC
MEAN_ELEMENT_THEORY = SGP/SGP4

EPOCH          = 2026-01-12T23:33:56.323296
MEAN_MOTION    = 15.19654472
ECCENTRICITY   = .00115805
INCLINATION    = 52.9275
RA_OF_ASC_NODE = 321.5952
ARG_OF_PERICENTER = 48.6427
MEAN_ANOMALY   = 311.5561

EPHEMERIS_TYPE = 0
CLASSIFICATION_TYPE = U
NORAD_CAT_ID   = 67233
ELEMENT_SET_NO = 999
REV_AT_EPOCH   = 302
BSTAR          = .27929634E-3
MEAN_MOTION_DOT = .5719E-4
MEAN_MOTION_DDOT = 0

CCSDS_OMM_VERS = 2.0
CREATION_DATE  = 
ORIGINATOR     = 

OBJECT_NAME    = 2025-310A
OBJECT_ID      = 2025-310A
CENTER_NAME    = EARTH
REF_FRAME      = TEME
TIME_SYSTEM    = UTC
MEAN_ELEMENT_THEORY = SGP/SGP4

EPOCH          = 2026-01-12T23:02:15.163872
MEAN_MOTION    = 14.75705700
ECCENTRICITY   = .00018162
INCLINATION    = 97.9662
RA_OF_ASC_NODE = 22.4985
ARG_OF_PERICENTER = 185.3611
MEAN_ANOMALY   = 174.7580

EPHEMERIS_TYPE = 0
CLASSIFICATION_TYPE = U
NORAD_CAT_ID   = 67234
ELEMENT_SET_NO = 999
REV_AT_EPOCH   = 273
BSTAR          = .11927271E-4
MEAN_MOTION_DOT = .31E-6
MEAN_MOTION_DDOT = 0

CCSDS_OMM_VERS = 2.0
CREATION_DATE  = 
ORIGINATOR     = 

OBJECT_NAME    = SL-4 R/B
OBJECT_ID      = 2025-310B
CENTER_NAME    = EARTH
REF_FRAME      = TEME
TIME_SYSTEM    = UTC
MEAN_ELEMENT_THEORY = SGP/SGP4

EPOCH          = 2026-01-12T22:49:24.434400
MEAN_MOTION    = 15.58260390
ECCENTRICITY   = .02696424
INCLINATION    = 97.9631
RA_OF_ASC_NODE = 24.4939
ARG_OF_PERICENTER = 10.2785
MEAN_ANOMALY   = 350.3829

EPHEMERIS_TYPE = 0
CLASSIFICATION_TYPE = U
NORAD_CAT_ID   = 67235
ELEMENT_SET_NO = 999
REV_AT_EPOCH   = 285
BSTAR          = .54014802E-3
MEAN_MOTION_DOT = .262572E-2
MEAN_MOTION_DDOT = .2390168E-5

CCSDS_OMM_VERS = 2.0
CREATION_DATE  = 
ORIGINATOR     = 

OBJECT_NAME    = HULIANWANG DIGUI-128
OBJECT_ID      = 2025-311A
CENTER_NAME    = EARTH
REF_FRAME      = TEME
TIME_SYSTEM    = UTC
MEAN_ELEMENT_THEORY = SGP/SGP4

EPOCH          = 2026-01-12T23:23:38.392224
MEAN_MOTION    = 13.90210137
ECCENTRICITY   = .00065517
INCLINATION    = 50.0103
RA_OF_ASC_NODE = 324.0210
ARG_OF_PERICENTER = 337.3717
MEAN_ANOMALY   = 22.6892

EPHEMERIS_TYPE = 0
CLASSIFICATION_TYPE = U
NORAD_CAT_ID   = 67236
ELEMENT_SET_NO = 999
REV_AT_EPOCH   = 251
BSTAR          = .94379785E-4
MEAN_MOTION_DOT = -.29E-6
MEAN_MOTION_DDOT = 0

CCSDS_OMM_VERS = 2.0
CREATION_DATE  = 
ORIGINATOR     = 

OBJECT_NAME    = HULIANWANG DIGUI-129
OBJECT_ID      = 2025-311B
CENTER_NAME    = EARTH
REF_FRAME      = TEME
TIME_SYSTEM    = UTC
MEAN_ELEMENT_THEORY = SGP/SGP4

EPOCH          = 2026-01-12T21:41:52.086912
MEAN_MOTION    = 13.90166408
ECCENTRICITY   = .00077974
INCLINATION    = 50.0092
RA_OF_ASC_NODE = 324.3109
ARG_OF_PERICENTER = 338.6942
MEAN_ANOMALY   = 21.3631

EPHEMERIS_TYPE = 0
CLASSIFICATION_TYPE = U
NORAD_CAT_ID   = 67237
ELEMENT_SET_NO = 999
REV_AT_EPOCH   = 250
BSTAR          = .87998455E-4
MEAN_MOTION_DOT = -.37E-6
MEAN_MOTION_DDOT = 0

CCSDS_OMM_VERS = 2.0
CREATION_DATE  = 
ORIGINATOR     = 

OBJECT_NAME    = HULIANWANG DIGUI-130
OBJECT_ID      = 2025-311C
CENTER_NAME    = EARTH
REF_FRAME      = TEME
TIME_SYSTEM    = UTC
MEAN_ELEMENT_THEORY = SGP/SGP4

EPOCH          = 2026-01-12T23:35:04.417728
MEAN_MOTION    = 13.90218029
ECCENTRICITY   = .00077608
INCLINATION    = 50.0072
RA_OF_ASC_NODE = 324.0549
ARG_OF_PERICENTER = 316.3581
MEAN_ANOMALY   = 43.6703

EPHEMERIS_TYPE = 0
CLASSIFICATION_TYPE = U
NORAD_CAT_ID   = 67238
ELEMENT_SET_NO = 999
REV_AT_EPOCH   = 251
BSTAR          = .97718394E-4
MEAN_MOTION_DOT = -.25E-6
MEAN_MOTION_DDOT = 0

CCSDS_OMM_VERS = 2.0
CREATION_DATE  = 
ORIGINATOR     = 

OBJECT_NAME    = HULIANWANG DIGUI-131
OBJECT_ID      = 2025-311D
CENTER_NAME    = EARTH
REF_FRAME      = TEME
TIME_SYSTEM    = UTC
MEAN_ELEMENT_THEORY = SGP/SGP4

EPOCH          = 2026-01-12T23:39:31.117248
MEAN_MOTION    = 13.90205067
ECCENTRICITY   = .00093658
INCLINATION    = 50.0068
RA_OF_ASC_NODE = 324.0697
ARG_OF_PERICENTER = 323.7252
MEAN_ANOMALY   = 36.3011

EPHEMERIS_TYPE = 0
CLASSIFICATION_TYPE = U
NORAD_CAT_ID   = 67239
ELEMENT_SET_NO = 999
REV_AT_EPOCH   = 251
BSTAR          = .9797803E-4
MEAN_MOTION_DOT = -.24E-6
MEAN_MOTION_DDOT = 0

CCSDS_OMM_VERS = 2.0
CREATION_DATE  = 
ORIGINATOR     = 

OBJECT_NAME    = HULIANWANG DIGUI-132
OBJECT_ID      = 2025-311E
CENTER_NAME    = EARTH
REF_FRAME      = TEME
TIME_SYSTEM    = UTC
MEAN_ELEMENT_THEORY = SGP/SGP4

EPOCH          = 2026-01-12T23:30:40.269600
MEAN_MOTION    = 13.90230952
ECCENTRICITY   = .0008453
INCLINATION    = 50.0080
RA_OF_ASC_NODE = 324.0408
ARG_OF_PERICENTER = 330.4296
MEAN_ANOMALY   = 29.6124

EPHEMERIS_TYPE = 0
CLASSIFICATION_TYPE = U
NORAD_CAT_ID   = 67240
ELEMENT_SET_NO = 999
REV_AT_EPOCH   = 251
BSTAR          = .90505352E-4
MEAN_MOTION_DOT = -.34E-6
MEAN_MOTION_DDOT = 0

CCSDS_OMM_VERS = 2.0
CREATION_DATE  = 
ORIGINATOR     = 

OBJECT_NAME    = HULIANWANG DIGUI-133
OBJECT_ID      = 2025-311F
CENTER_NAME    = EARTH
REF_FRAME      = TEME
TIME_SYSTEM    = UTC
MEAN_ELEMENT_THEORY = SGP/SGP4

EPOCH          = 2026-01-12T23:27:59.918112
MEAN_MOTION    = 13.90208903
ECCENTRICITY   = .00075712
INCLINATION    = 50.0124
RA_OF_ASC_NODE = 324.0418
ARG_OF_PERICENTER = 334.6241
MEAN_ANOMALY   = 25.4285

EPHEMERIS_TYPE = 0
CLASSIFICATION_TYPE = U
NORAD_CAT_ID   = 67241
ELEMENT_SET_NO = 999
REV_AT_EPOCH   = 251
BSTAR          = .93115257E-4
MEAN_MOTION_DOT = -.3E-6
MEAN_MOTION_DDOT = 0

CCSDS_OMM_VERS = 2.0
CREATION_DATE  = 
ORIGINATOR     = 

OBJECT_NAME    = HULIANWANG DIGUI-134
OBJECT_ID      = 2025-311G
CENTER_NAME    = EARTH
REF_FRAME      = TEME
TIME_SYSTEM    = UTC
MEAN_ELEMENT_THEORY = SGP/SGP4

EPOCH          = 2026-01-12T23:29:32.453376
MEAN_MOTION    = 13.90195004
ECCENTRICITY   = .00066946
INCLINATION    = 50.0054
RA_OF_ASC_NODE = 324.0303
ARG_OF_PERICENTER = 323.5710
MEAN_ANOMALY   = 36.4732

EPHEMERIS_TYPE = 0
CLASSIFICATION_TYPE = U
NORAD_CAT_ID   = 67242
ELEMENT_SET_NO = 999
REV_AT_EPOCH   = 251
BSTAR          = .1025998E-3
MEAN_MOTION_DOT = -.19E-6
MEAN_MOTION_DDOT = 0

CCSDS_OMM_VERS = 2.0
CREATION_DATE  = 
ORIGINATOR     = 

OBJECT_NAME    = HULIANWANG DIGUI-135
OBJECT_ID      = 2025-311H
CENTER_NAME    = EARTH
REF_FRAME      = TEME
TIME_SYSTEM    = UTC
MEAN_ELEMENT_THEORY = SGP/SGP4

EPOCH          = 2026-01-12T23:32:31.157088
MEAN_MOTION    = 13.90184011
ECCENTRICITY   = .00079104
INCLINATION    = 50.0040
RA_OF_ASC_NODE = 324.0377
ARG_OF_PERICENTER = 326.0352
MEAN_ANOMALY   = 34.0039

EPHEMERIS_TYPE = 0
CLASSIFICATION_TYPE = U
NORAD_CAT_ID   = 67243
ELEMENT_SET_NO = 999
REV_AT_EPOCH   = 251
BSTAR          = .96540012E-4
MEAN_MOTION_DOT = -.26E-6
MEAN_MOTION_DDOT = 0

